{
  "type": "FeatureCollection",
  "features": [
    {
      "type": "Feature",
      "properties": {
        "norad_id": 64903,
        "name": "CO3D 1",
        "group": "resource",
        "lat": -72.06042724784378,
        "lon": -129.43977210904316,
        "alt_km": 513.1350586229828,
        "timestamp": "2025-12-24T05:51:19.263701+00:00",
        "meta_object_name": "CO3D 1",
        "meta_object_id": "2025-156E",
        "meta_epoch": "2025-12-23T22:25:27.014016",
        "meta_mean_motion": 15.20205098,
        "meta_eccentricity": 8.767e-05,
        "meta_inclination": 97.4339,
        "meta_ra_of_asc_node": 74.0397,
        "meta_arg_of_pericenter": 75.5297,
        "meta_mean_anomaly": 284.6035,
        "meta_ephemeris_type": 0,
        "meta_classification_type": "U",
        "meta_norad_cat_id": 64903,
        "meta_element_set_no": 999,
        "meta_rev_at_epoch": 2290,
        "meta_bstar": 0.00023411843,
        "meta_mean_motion_dot": 5.004e-05,
        "meta_mean_motion_ddot": 0,
        "tle_line1": "1 64903U 25156E   25357.93434044  .00005004  00000+0  23412-3 0  9997",
        "tle_line2": "2 64903  97.4339  74.0397 0000876  75.5297 284.6035 15.20205098 22908"
      },
      "geometry": {
        "type": "Point",
        "coordinates": [
          -129.43977210904316,
          -72.06042724784378
        ]
      }
    },
    {
      "type": "Feature",
      "properties": {
        "norad_id": 66514,
        "name": "SENTINEL-6B",
        "group": "resource",
        "lat": -37.99950106036568,
        "lon": -21.132233091488583,
        "alt_km": 1339.0306362684123,
        "timestamp": "2025-12-24T05:51:19.263711+00:00",
        "meta_object_name": "SENTINEL-6B",
        "meta_object_id": "2025-264A",
        "meta_epoch": "2025-12-23T02:27:52.423776",
        "meta_mean_motion": 12.8092954,
        "meta_eccentricity": 0.00078893,
        "meta_inclination": 66.0396,
        "meta_ra_of_asc_node": 140.9099,
        "meta_arg_of_pericenter": 269.9741,
        "meta_mean_anomaly": 90.037,
        "meta_ephemeris_type": 0,
        "meta_classification_type": "U",
        "meta_norad_cat_id": 66514,
        "meta_element_set_no": 999,
        "meta_rev_at_epoch": 461,
        "meta_bstar": -1.0381303e-05,
        "meta_mean_motion_dot": -6.3e-07,
        "meta_mean_motion_ddot": 0,
        "tle_line1": "1 66514U 25264A   25357.10269009 -.00000063  00000+0 -10381-4 0  9997",
        "tle_line2": "2 66514  66.0396 140.9099 0007889 269.9741  90.0370 12.80929540  4616"
      },
      "geometry": {
        "type": "Point",
        "coordinates": [
          -21.132233091488583,
          -37.99950106036568
        ]
      }
    }
  ]
}